KUIPER-00079            
1 64826U 25151L   25320.70106274  .00002562  00000+0  38169-3 0  9993
2 64826  51.9012  80.0624 0011817 223.1958 136.8078 14.77981246 19770
KUIPER-00080            
1 64827U 25151M   25320.74879902 -.00007057  00000+0 -90059-3 0  9995
2 64827  51.8989  79.9952 0005104 239.3735 120.6724 14.79779427 18583
KUIPER-00082            
1 64828U 25151N   25321.67396084  .00007200  00000+0  97255-3 0  9997
2 64828  51.9022  63.4154 0004581 257.4375 102.6075 14.79925118 18897
KUIPER-00083            
1 64829U 25151P   25321.66578404 -.00001022  00000+0 -10459-3 0  9994
2 64829  51.8993  70.9486 0010640 232.5079 127.4916 14.79951074 19972
KUIPER-00084            
1 64830U 25151Q   25321.72267564  .00026740  00000+0  35235-2 0  9995
2 64830  51.9011  80.6851 0010609 195.7429 164.3205 14.79889356 18652
KUIPER-00085            
1 64831U 25151R   25321.70774569  .00017748  00000+0  23501-2 0  9993
2 64831  51.9045  63.2772 0007091 236.5708 123.4577 14.79935644 18890
KUIPER-00086            
1 64832U 25151S   25321.49389312  .00001866  00000+0  27364-3 0  9994
2 64832  51.9020  74.2052 0010882 224.2810 135.7283 14.79964663 18722
KUIPER-00087            
1 64833U 25151T   25321.83337963 -.00028441  00000+0 -36901-2 0  9994
2 64833  51.9002  55.2159 0001526 264.8656   0.7478 14.80241095  4050
